BRO-15                  
1 60553U 24149CP  26068.78650368  .00000816  00000+0  78021-4 0  9990
2 60553  97.6864 146.0377 0009320  65.4416 294.7775 14.95892184 85149
STARLINK-34061          
1 63876U 25094N   26068.85947909  .00004223  00000+0  36145-3 0  9995
2 63876  70.0018 234.2253 0003093 273.3985  86.6821 14.98336916 47227
